0 TDS 1
1 40076U 14037H   15237.41991028  .00000161  00000-0  28251-4 0  9994
2 40076 098.3461 311.7911 0006967 045.9511 314.2270 14.80984298 61061
